{
  "type": "FeatureCollection",
  "features": [
    {
      "type": "Feature",
      "properties": {
        "norad_id": 40938,
        "name": "BEIDOU-3S IGSO-2S (C56)",
        "group": "gnss",
        "lat": -34.393621267879226,
        "lon": 116.6860070212941,
        "alt_km": 35591.39141952152,
        "timestamp": "2025-12-13T20:38:51.246229+00:00",
        "meta_object_name": "BEIDOU-3S IGSO-2S (C56)",
        "meta_object_id": "2015-053A",
        "meta_epoch": "2025-12-12T17:40:22.230624",
        "meta_mean_motion": 1.00269795,
        "meta_eccentricity": 0.00608697,
        "meta_inclination": 49.5105,
        "meta_ra_of_asc_node": 261.0048,
        "meta_arg_of_pericenter": 188.8005,
        "meta_mean_anomaly": 352.9764,
        "meta_ephemeris_type": 0,
        "meta_classification_type": "U",
        "meta_norad_cat_id": 40938,
        "meta_element_set_no": 999,
        "meta_rev_at_epoch": 3748,
        "meta_bstar": 0,
        "meta_mean_motion_dot": -1.58e-06,
        "meta_mean_motion_ddot": 0,
        "tle_line1": "1 40938U 15053A   25346.73636841 -.00000158  00000+0  00000+0 0  9999",
        "tle_line2": "2 40938  49.5105 261.0048 0060869 188.8005 352.9764  1.00269795 37487"
      },
      "geometry": {
        "type": "Point",
        "coordinates": [
          116.6860070212941,
          -34.393621267879226
        ]
      }
    },
    {
      "type": "Feature",
      "properties": {
        "norad_id": 41019,
        "name": "GPS BIIF-11 (PRN 10)",
        "group": "gnss",
        "lat": 30.82647616102757,
        "lon": 60.9242375399889,
        "alt_km": 20466.30936591938,
        "timestamp": "2025-12-13T20:38:51.246241+00:00",
        "meta_object_name": "GPS BIIF-11 (PRN 10)",
        "meta_object_id": "2015-062A",
        "meta_epoch": "2025-12-12T19:26:17.021472",
        "meta_mean_motion": 2.00567154,
        "meta_eccentricity": 0.01108376,
        "meta_inclination": 56.8322,
        "meta_ra_of_asc_node": 37.9995,
        "meta_arg_of_pericenter": 229.9471,
        "meta_mean_anomaly": 129.1248,
        "meta_ephemeris_type": 0,
        "meta_classification_type": "U",
        "meta_norad_cat_id": 41019,
        "meta_element_set_no": 999,
        "meta_rev_at_epoch": 7409,
        "meta_bstar": 0,
        "meta_mean_motion_dot": -9.6e-07,
        "meta_mean_motion_ddot": 0,
        "tle_line1": "1 41019U 15062A   25346.80991923 -.00000096  00000+0  00000+0 0  9994",
        "tle_line2": "2 41019  56.8322  37.9995 0110837 229.9471 129.1248  2.00567154 74096"
      },
      "geometry": {
        "type": "Point",
        "coordinates": [
          60.9242375399889,
          30.82647616102757
        ]
      }
    },
    {
      "type": "Feature",
      "properties": {
        "norad_id": 41028,
        "name": "GSAT-15 (GAGAN/PRN 139)",
        "group": "gnss",
        "lat": -0.019205690527264233,
        "lon": 125.96065757102046,
        "alt_km": 35788.97967740406,
        "timestamp": "2025-12-13T20:38:51.246254+00:00",
        "meta_object_name": "GSAT-15 (GAGAN/PRN 139)",
        "meta_object_id": "2015-065A",
        "meta_epoch": "2025-12-13T03:37:05.778912",
        "meta_mean_motion": 1.00271881,
        "meta_eccentricity": 0.00028737,
        "meta_inclination": 0.0445,
        "meta_ra_of_asc_node": 266.2557,
        "meta_arg_of_pericenter": 323.0871,
        "meta_mean_anomaly": 0.5195,
        "meta_ephemeris_type": 0,
        "meta_classification_type": "U",
        "meta_norad_cat_id": 41028,
        "meta_element_set_no": 999,
        "meta_rev_at_epoch": 3693,
        "meta_bstar": 0,
        "meta_mean_motion_dot": -2.44e-06,
        "meta_mean_motion_ddot": 0,
        "tle_line1": "1 41028U 15065A   25347.15076133 -.00000244  00000+0  00000+0 0  9998",
        "tle_line2": "2 41028   0.0445 266.2557 0002873 323.0871   0.5195  1.00271881 36936"
      },
      "geometry": {
        "type": "Point",
        "coordinates": [
          125.96065757102046,
          -0.019205690527264233
        ]
      }
    },
    {
      "type": "Feature",
      "properties": {
        "norad_id": 41174,
        "name": "GSAT0209 (GALILEO 12)",
        "group": "gnss",
        "lat": 50.12574655526942,
        "lon": -128.34752242769775,
        "alt_km": 23219.834535761685,
        "timestamp": "2025-12-13T20:38:51.246266+00:00",
        "meta_object_name": "GSAT0209 (GALILEO 12)",
        "meta_object_id": "2015-079A",
        "meta_epoch": "2025-12-10T17:53:22.611840",
        "meta_mean_motion": 1.70474458,
        "meta_eccentricity": 0.00024095,
        "meta_inclination": 55.7117,
        "meta_ra_of_asc_node": 106.4357,
        "meta_arg_of_pericenter": 351.4479,
        "meta_mean_anomaly": 8.5179,
        "meta_ephemeris_type": 0,
        "meta_classification_type": "U",
        "meta_norad_cat_id": 41174,
        "meta_element_set_no": 999,
        "meta_rev_at_epoch": 6156,
        "meta_bstar": 0,
        "meta_mean_motion_dot": 1.1e-07,
        "meta_mean_motion_ddot": 0,
        "tle_line1": "1 41174U 15079A   25344.74540060  .00000011  00000+0  00000+0 0  9993",
        "tle_line2": "2 41174  55.7117 106.4357 0002409 351.4479   8.5179  1.70474458 61567"
      },
      "geometry": {
        "type": "Point",
        "coordinates": [
          -128.34752242769775,
          50.12574655526942
        ]
      }
    },
    {
      "type": "Feature",
      "properties": {
        "norad_id": 41175,
        "name": "GSAT0208 (GALILEO 11)",
        "group": "gnss",
        "lat": -19.176670509356008,
        "lon": 92.62063902917548,
        "alt_km": 23219.625311561154,
        "timestamp": "2025-12-13T20:38:51.246301+00:00",
        "meta_object_name": "GSAT0208 (GALILEO 11)",
        "meta_object_id": "2015-079B",
        "meta_epoch": "2025-12-12T17:24:26.771040",
        "meta_mean_motion": 1.70474307,
        "meta_eccentricity": 0.00018806,
        "meta_inclination": 55.7111,
        "meta_ra_of_asc_node": 106.3784,
        "meta_arg_of_pericenter": 358.3144,
        "meta_mean_anomaly": 1.6545,
        "meta_ephemeris_type": 0,
        "meta_classification_type": "U",
        "meta_norad_cat_id": 41175,
        "meta_element_set_no": 999,
        "meta_rev_at_epoch": 6201,
        "meta_bstar": 0,
        "meta_mean_motion_dot": 4e-08,
        "meta_mean_motion_ddot": 0,
        "tle_line1": "1 41175U 15079B   25346.72530985  .00000004  00000+0  00000+0 0  9991",
        "tle_line2": "2 41175  55.7111 106.3784 0001880 358.3144   1.6545  1.70474307 62017"
      },
      "geometry": {
        "type": "Point",
        "coordinates": [
          92.62063902917548,
          -19.176670509356008
        ]
      }
    },
    {
      "type": "Feature",
      "properties": {
        "norad_id": 41241,
        "name": "IRNSS-1E",
        "group": "gnss",
        "lat": 32.45778193443913,
        "lon": 142.50546035018712,
        "alt_km": 35807.276862382016,
        "timestamp": "2025-12-13T20:38:51.246316+00:00",
        "meta_object_name": "IRNSS-1E",
        "meta_object_id": "2016-003A",
        "meta_epoch": "2025-12-12T20:06:57.569184",
        "meta_mean_motion": 1.00273817,
        "meta_eccentricity": 0.00218004,
        "meta_inclination": 32.8255,
        "meta_ra_of_asc_node": 62.4521,
        "meta_arg_of_pericenter": 187.6915,
        "meta_mean_anomaly": 245.1684,
        "meta_ephemeris_type": 0,
        "meta_classification_type": "U",
        "meta_norad_cat_id": 41241,
        "meta_element_set_no": 999,
        "meta_rev_at_epoch": 3621,
        "meta_bstar": 0,
        "meta_mean_motion_dot": -3.05e-06,
        "meta_mean_motion_ddot": 0,
        "tle_line1": "1 41241U 16003A   25346.83816631 -.00000305  00000+0  00000+0 0  9995",
        "tle_line2": "2 41241  32.8255  62.4521 0021800 187.6915 245.1684  1.00273817 36218"
      },
      "geometry": {
        "type": "Point",
        "coordinates": [
          142.50546035018712,
          32.45778193443913
        ]
      }
    },
    {
      "type": "Feature",
      "properties": {
        "norad_id": 41328,
        "name": "GPS BIIF-12 (PRN 32)",
        "group": "gnss",
        "lat": -17.198419419582567,
        "lon": 84.48434687251536,
        "alt_km": 20205.85480414871,
        "timestamp": "2025-12-13T20:38:51.246328+00:00",
        "meta_object_name": "GPS BIIF-12 (PRN 32)",
        "meta_object_id": "2016-007A",
        "meta_epoch": "2025-12-10T21:33:15.579936",
        "meta_mean_motion": 2.00560768,
        "meta_eccentricity": 0.0092092,
        "meta_inclination": 55.4051,
        "meta_ra_of_asc_node": 96.9301,
        "meta_arg_of_pericenter": 243.5329,
        "meta_mean_anomaly": 115.5097,
        "meta_ephemeris_type": 0,
        "meta_classification_type": "U",
        "meta_norad_cat_id": 41328,
        "meta_element_set_no": 999,
        "meta_rev_at_epoch": 7206,
        "meta_bstar": 0,
        "meta_mean_motion_dot": 1e-08,
        "meta_mean_motion_ddot": 0,
        "tle_line1": "1 41328U 16007A   25344.89809699  .00000001  00000+0  00000+0 0  9997",
        "tle_line2": "2 41328  55.4051  96.9301 0092092 243.5329 115.5097  2.00560768 72065"
      },
      "geometry": {
        "type": "Point",
        "coordinates": [
          84.48434687251536,
          -17.198419419582567
        ]
      }
    }
  ]
}